[{"OBJECT_NAME":"GRUS-1E","OBJECT_ID":"2021-022D","EPOCH":"2026-03-09T21:59:56.793984","MEAN_MOTION":14.99580708,"ECCENTRICITY":0.00128752,"INCLINATION":97.5572,"RA_OF_ASC_NODE":316.384,"ARG_OF_PERICENTER":314.1526,"MEAN_ANOMALY":45.8638,"EPHEMERIS_TYPE":0,"CLASSIFICATION_TYPE":"U","NORAD_CAT_ID":47935,"ELEMENT_SET_NO":999,"REV_AT_EPOCH":27107,"BSTAR":0.00017718433,"MEAN_MOTION_DOT":2.125e-5,"MEAN_MOTION_DDOT":0},{"OBJECT_NAME":"STARLINK-4400","OBJECT_ID":"2022-099D","EPOCH":"2026-03-09T20:34:49.725408","MEAN_MOTION":15.012462,"ECCENTRICITY":0.00020188,"INCLINATION":97.6032,"RA_OF_ASC_NODE":190.3793,"ARG_OF_PERICENTER":79.6741,"MEAN_ANOMALY":280.4711,"EPHEMERIS_TYPE":0,"CLASSIFICATION_TYPE":"U","NORAD_CAT_ID":53468,"ELEMENT_SET_NO":999,"REV_AT_EPOCH":19600,"BSTAR":-6.330616e-5,"MEAN_MOTION_DOT":-8.71e-6,"MEAN_MOTION_DDOT":0}]
